{
    "links": {
        "self": "http://www.neowsapp.com/rest/v1/neo/3837743?api_key=iIulBulltgU6a56xZRHN4H3l9WmuAYTsLGpBGhQ2"
    },
    "id": "3837743",
    "neo_reference_id": "3837743",
    "name": "(2019 AQ7)",
    "designation": "2019 AQ7",
    "nasa_jpl_url": "http://ssd.jpl.nasa.gov/sbdb.cgi?sstr=3837743",
    "absolute_magnitude_h": 24.3,
    "estimated_diameter": {
        "kilometers": {
            "estimated_diameter_min": 0.0366906138,
            "estimated_diameter_max": 0.0820427065
        },
        "meters": {
            "estimated_diameter_min": 36.6906137531,
            "estimated_diameter_max": 82.0427064882
        },
        "miles": {
            "estimated_diameter_min": 0.0227984834,
            "estimated_diameter_max": 0.0509789586
        },
        "feet": {
            "estimated_diameter_min": 120.3760332259,
            "estimated_diameter_max": 269.1689931548
        }
    },
    "is_potentially_hazardous_asteroid": false,
    "close_approach_data": [
        {
            "close_approach_date": "2019-01-23",
            "close_approach_date_full": "2019-Jan-23 01:07",
            "epoch_date_close_approach": 1548205620000,
            "relative_velocity": {
                "kilometers_per_second": "13.9697123012",
                "kilometers_per_hour": "50290.9642841933",
                "miles_per_hour": "31248.8494464755"
            },
            "miss_distance": {
                "astronomical": "0.1023169105",
                "lunar": "39.8012781845",
                "kilometers": "15306391.875780635",
                "miles": "9510950.882957363"
            },
            "orbiting_body": "Earth"
        }
    ],
    "orbital_data": {
        "orbit_id": "3",
        "orbit_determination_date": "2019-01-15 07:05:01",
        "first_observation_date": "2019-01-08",
        "last_observation_date": "2019-01-15",
        "data_arc_in_days": 7,
        "observations_used": 22,
        "orbit_uncertainty": "8",
        "minimum_orbit_intersection": ".0857167",
        "jupiter_tisserand_invariant": "3.550",
        "epoch_osculation": "2458493.5",
        "eccentricity": ".545775654604312",
        "semi_major_axis": "2.062933257925365",
        "inclination": "13.05928040769451",
        "ascending_node_longitude": "289.3739288654506",
        "orbital_period": "1082.246507737382",
        "perihelion_distance": ".9370345086761428",
        "perihelion_argument": "240.6473409970368",
        "aphelion_distance": "3.188832007174587",
        "perihelion_time": "2458541.548899823401",
        "mean_anomaly": "344.0169464047632",
        "mean_motion": ".3326414060255464",
        "equinox": "J2000",
        "orbit_class": {
            "orbit_class_type": "APO",
            "orbit_class_description": "Near-Earth asteroid orbits which cross the Earth’s orbit similar to that of 1862 Apollo",
            "orbit_class_range": "a (semi-major axis) > 1.0 AU; q (perihelion) < 1.017 AU"
        }
    },
    "is_sentry_object": false
}